BEIDOU-2 M3             
1 38250U 12018A   23320.22438426 -.00000051  00000+0  00000+0 0  9996
2 38250  56.4716 336.4547 0025430 260.7511  99.0000  1.86231118 78360
BEIDOU-2 M4             
1 38251U 12018B   23319.08161163 -.00000051  00000+0  00000+0 0  9990
2 38251  56.3819 335.7804 0016351 262.7155  97.1397  1.86231879 78340
AEHF-2 (USA 235)        
1 38254U 12019A   23320.83477483 -.00000143  00000+0  00000+0 0  9996
2 38254   4.4759  62.0895 0004911 183.5788  16.2970  1.00270068 41394
TIANHUI 1-02            
1 38256U 12020A   23321.12565301  .00008801  00000+0  26575-3 0  9997
2 38256  97.5709 103.1934 0012101 256.4123 103.5771 15.34438063641532
YAOGAN 14               
1 38257U 12021A   23321.17294932  .00008423  00000+0  35487-3 0  9995
2 38257  97.6108 113.1829 0003699  42.7493 317.4030 15.23594030642360
JCSAT-13                
1 38331U 12023A   23321.02146191 -.00000340  00000+0  00000+0 0  9997
2 38331   0.0135 308.1547 0002518 285.5973 313.8239  1.00268777 42117
VINASAT-2               
1 38332U 12023B   23320.87976559 -.00000312  00000+0  00000+0 0  9998
2 38332   0.0152 324.9570 0001952 263.8589 275.4595  1.00272538 42154
GCOM-W1 (SHIZUKU)       
1 38337U 12025A   23321.12225168  .00000814  00000+0  19069-3 0  9992
2 38337  98.2166 259.1622 0001997  68.8531 301.5048 14.57104117611697
ARIRANG-3 (KOMPSAT-3)   
1 38338U 12025B   23321.09607794  .00000695  00000+0  14711-3 0  9994
2 38338  98.2369 262.5566 0010187 178.5542 181.5691 14.62285700613595
SDS-4                   
1 38339U 12025C   23321.18046706  .00001031  00000+0  17199-3 0  9993
2 38339  98.1903  35.3960 0008397  71.6341 288.5778 14.72112722617135
NIMIQ 6                 
1 38342U 12026A   23320.47716935 -.00000155  00000+0  00000+0 0  9993
2 38342   0.0178 294.1493 0002687 299.2437 262.6147  1.00271376 40963
CHINASAT 2A (ZX 2A)     
1 38352U 12028A   23321.01632757 -.00000277  00000+0  00000+0 0  9991
2 38352   0.0222 277.8612 0001318 358.1581 243.9809  1.00272198 42186
YAOGAN 15               
1 38354U 12029A   23321.10698215 -.00000018  00000+0  74623-4 0  9995
2 38354 100.7399 131.1020 0024890 263.4609  96.3670 13.18306443551178
INTELSAT 19 (IS-19)     
1 38356U 12030A   23320.81493365 -.00000039  00000+0  00000+0 0  9991
2 38356   0.0096 327.7113 0002956 267.6475 279.6746  1.00270412 40984
NUSTAR                  
1 38358U 12031A   23320.14894699  .00004771  00000+0  37160-3 0  9992
2 38358   6.0249 194.1802 0011518 258.8002 101.0832 14.93528050622109
ECHOSTAR 17             
1 38551U 12035A   23320.89369228 -.00000058  00000+0  00000+0 0  9992
2 38551   0.0170 298.1172 0002146 297.4599  34.7839  1.00270448 41601
METEOSAT-10 (MSG-3)     
1 38552U 12035B   23320.85348472  .00000009  00000+0  00000+0 0  9992
2 38552   2.4941  58.5890 0000631 237.8304  66.3072  1.00276773 41391
