[{"OBJECT_NAME":"BEIDOU-2 M3","OBJECT_ID":"2012-018A","EPOCH":"2023-11-16T05:23:06.800064","MEAN_MOTION":1.86231118,"ECCENTRICITY":0.002543,"INCLINATION":56.4716,"RA_OF_ASC_NODE":336.4547,"ARG_OF_PERICENTER":260.7511,"MEAN_ANOMALY":99,"EPHEMERIS_TYPE":0,"CLASSIFICATION_TYPE":"U","NORAD_CAT_ID":38250,"ELEMENT_SET_NO":999,"REV_AT_EPOCH":7836,"BSTAR":0,"MEAN_MOTION_DOT":-5.1e-7,"MEAN_MOTION_DDOT":0},{"OBJECT_NAME":"BEIDOU-2 M4","OBJECT_ID":"2012-018B","EPOCH":"2023-11-15T01:57:31.244832","MEAN_MOTION":1.86231879,"ECCENTRICITY":0.0016351,"INCLINATION":56.3819,"RA_OF_ASC_NODE":335.7804,"ARG_OF_PERICENTER":262.7155,"MEAN_ANOMALY":97.1397,"EPHEMERIS_TYPE":0,"CLASSIFICATION_TYPE":"U","NORAD_CAT_ID":38251,"ELEMENT_SET_NO":999,"REV_AT_EPOCH":7834,"BSTAR":0,"MEAN_MOTION_DOT":-5.1e-7,"MEAN_MOTION_DDOT":0},{"OBJECT_NAME":"AEHF-2 (USA 235)","OBJECT_ID":"2012-019A","EPOCH":"2023-11-16T20:02:04.545312","MEAN_MOTION":1.00270068,"ECCENTRICITY":0.0004911,"INCLINATION":4.4759,"RA_OF_ASC_NODE":62.0895,"ARG_OF_PERICENTER":183.5788,"MEAN_ANOMALY":16.297,"EPHEMERIS_TYPE":0,"CLASSIFICATION_TYPE":"U","NORAD_CAT_ID":38254,"ELEMENT_SET_NO":999,"REV_AT_EPOCH":4139,"BSTAR":0,"MEAN_MOTION_DOT":-1.43e-6,"MEAN_MOTION_DDOT":0},{"OBJECT_NAME":"TIANHUI 1-02","OBJECT_ID":"2012-020A","EPOCH":"2023-11-17T03:00:56.420064","MEAN_MOTION":15.34438063,"ECCENTRICITY":0.0012101,"INCLINATION":97.5709,"RA_OF_ASC_NODE":103.1934,"ARG_OF_PERICENTER":256.4123,"MEAN_ANOMALY":103.5771,"EPHEMERIS_TYPE":0,"CLASSIFICATION_TYPE":"U","NORAD_CAT_ID":38256,"ELEMENT_SET_NO":999,"REV_AT_EPOCH":64153,"BSTAR":0.00026575,"MEAN_MOTION_DOT":8.801e-5,"MEAN_MOTION_DDOT":0},{"OBJECT_NAME":"YAOGAN 14","OBJECT_ID":"2012-021A","EPOCH":"2023-11-17T04:09:02.821248","MEAN_MOTION":15.2359403,"ECCENTRICITY":0.0003699,"INCLINATION":97.6108,"RA_OF_ASC_NODE":113.1829,"ARG_OF_PERICENTER":42.7493,"MEAN_ANOMALY":317.403,"EPHEMERIS_TYPE":0,"CLASSIFICATION_TYPE":"U","NORAD_CAT_ID":38257,"ELEMENT_SET_NO":999,"REV_AT_EPOCH":64236,"BSTAR":0.00035487,"MEAN_MOTION_DOT":8.423e-5,"MEAN_MOTION_DDOT":0},{"OBJECT_NAME":"JCSAT-13","OBJECT_ID":"2012-023A","EPOCH":"2023-11-17T00:30:54.309024","MEAN_MOTION":1.00268777,"ECCENTRICITY":0.0002518,"INCLINATION":0.0135,"RA_OF_ASC_NODE":308.1547,"ARG_OF_PERICENTER":285.5973,"MEAN_ANOMALY":313.8239,"EPHEMERIS_TYPE":0,"CLASSIFICATION_TYPE":"U","NORAD_CAT_ID":38331,"ELEMENT_SET_NO":999,"REV_AT_EPOCH":4211,"BSTAR":0,"MEAN_MOTION_DOT":-3.4e-6,"MEAN_MOTION_DDOT":0},{"OBJECT_NAME":"VINASAT-2","OBJECT_ID":"2012-023B","EPOCH":"2023-11-16T21:06:51.746976","MEAN_MOTION":1.00272538,"ECCENTRICITY":0.0001952,"INCLINATION":0.0152,"RA_OF_ASC_NODE":324.957,"ARG_OF_PERICENTER":263.8589,"MEAN_ANOMALY":275.4595,"EPHEMERIS_TYPE":0,"CLASSIFICATION_TYPE":"U","NORAD_CAT_ID":38332,"ELEMENT_SET_NO":999,"REV_AT_EPOCH":4215,"BSTAR":0,"MEAN_MOTION_DOT":-3.12e-6,"MEAN_MOTION_DDOT":0},{"OBJECT_NAME":"GCOM-W1 (SHIZUKU)","OBJECT_ID":"2012-025A","EPOCH":"2023-11-17T02:56:02.545152","MEAN_MOTION":14.57104117,"ECCENTRICITY":0.0001997,"INCLINATION":98.2166,"RA_OF_ASC_NODE":259.1622,"ARG_OF_PERICENTER":68.8531,"MEAN_ANOMALY":301.5048,"EPHEMERIS_TYPE":0,"CLASSIFICATION_TYPE":"U","NORAD_CAT_ID":38337,"ELEMENT_SET_NO":999,"REV_AT_EPOCH":61169,"BSTAR":0.00019069,"MEAN_MOTION_DOT":8.14e-6,"MEAN_MOTION_DDOT":0},{"OBJECT_NAME":"ARIRANG-3 (KOMPSAT-3)","OBJECT_ID":"2012-025B","EPOCH":"2023-11-17T02:18:21.134016","MEAN_MOTION":14.622857,"ECCENTRICITY":0.0010187,"INCLINATION":98.2369,"RA_OF_ASC_NODE":262.5566,"ARG_OF_PERICENTER":178.5542,"MEAN_ANOMALY":181.5691,"EPHEMERIS_TYPE":0,"CLASSIFICATION_TYPE":"U","NORAD_CAT_ID":38338,"ELEMENT_SET_NO":999,"REV_AT_EPOCH":61359,"BSTAR":0.00014711,"MEAN_MOTION_DOT":6.95e-6,"MEAN_MOTION_DDOT":0},{"OBJECT_NAME":"SDS-4","OBJECT_ID":"2012-025C","EPOCH":"2023-11-17T04:19:52.353984","MEAN_MOTION":14.72112722,"ECCENTRICITY":0.0008397,"INCLINATION":98.1903,"RA_OF_ASC_NODE":35.396,"ARG_OF_PERICENTER":71.6341,"MEAN_ANOMALY":288.5778,"EPHEMERIS_TYPE":0,"CLASSIFICATION_TYPE":"U","NORAD_CAT_ID":38339,"ELEMENT_SET_NO":999,"REV_AT_EPOCH":61713,"BSTAR":0.00017199,"MEAN_MOTION_DOT":1.031e-5,"MEAN_MOTION_DDOT":0},{"OBJECT_NAME":"NIMIQ 6","OBJECT_ID":"2012-026A","EPOCH":"2023-11-16T11:27:07.431840","MEAN_MOTION":1.00271376,"ECCENTRICITY":0.0002687,"INCLINATION":0.0178,"RA_OF_ASC_NODE":294.1493,"ARG_OF_PERICENTER":299.2437,"MEAN_ANOMALY":262.6147,"EPHEMERIS_TYPE":0,"CLASSIFICATION_TYPE":"U","NORAD_CAT_ID":38342,"ELEMENT_SET_NO":999,"REV_AT_EPOCH":4096,"BSTAR":0,"MEAN_MOTION_DOT":-1.55e-6,"MEAN_MOTION_DDOT":0},{"OBJECT_NAME":"CHINASAT 2A (ZX 2A)","OBJECT_ID":"2012-028A","EPOCH":"2023-11-17T00:23:30.702048","MEAN_MOTION":1.00272198,"ECCENTRICITY":0.0001318,"INCLINATION":0.0222,"RA_OF_ASC_NODE":277.8612,"ARG_OF_PERICENTER":358.1581,"MEAN_ANOMALY":243.9809,"EPHEMERIS_TYPE":0,"CLASSIFICATION_TYPE":"U","NORAD_CAT_ID":38352,"ELEMENT_SET_NO":999,"REV_AT_EPOCH":4218,"BSTAR":0,"MEAN_MOTION_DOT":-2.77e-6,"MEAN_MOTION_DDOT":0},{"OBJECT_NAME":"YAOGAN 15","OBJECT_ID":"2012-029A","EPOCH":"2023-11-17T02:34:03.257760","MEAN_MOTION":13.18306443,"ECCENTRICITY":0.002489,"INCLINATION":100.7399,"RA_OF_ASC_NODE":131.102,"ARG_OF_PERICENTER":263.4609,"MEAN_ANOMALY":96.367,"EPHEMERIS_TYPE":0,"CLASSIFICATION_TYPE":"U","NORAD_CAT_ID":38354,"ELEMENT_SET_NO":999,"REV_AT_EPOCH":55117,"BSTAR":7.4623e-5,"MEAN_MOTION_DOT":-1.8e-7,"MEAN_MOTION_DDOT":0},{"OBJECT_NAME":"INTELSAT 19 (IS-19)","OBJECT_ID":"2012-030A","EPOCH":"2023-11-16T19:33:30.267360","MEAN_MOTION":1.00270412,"ECCENTRICITY":0.0002956,"INCLINATION":0.0096,"RA_OF_ASC_NODE":327.7113,"ARG_OF_PERICENTER":267.6475,"MEAN_ANOMALY":279.6746,"EPHEMERIS_TYPE":0,"CLASSIFICATION_TYPE":"U","NORAD_CAT_ID":38356,"ELEMENT_SET_NO":999,"REV_AT_EPOCH":4098,"BSTAR":0,"MEAN_MOTION_DOT":-3.9e-7,"MEAN_MOTION_DDOT":0},{"OBJECT_NAME":"NUSTAR","OBJECT_ID":"2012-031A","EPOCH":"2023-11-16T03:34:29.019936","MEAN_MOTION":14.9352805,"ECCENTRICITY":0.0011518,"INCLINATION":6.0249,"RA_OF_ASC_NODE":194.1802,"ARG_OF_PERICENTER":258.8002,"MEAN_ANOMALY":101.0832,"EPHEMERIS_TYPE":0,"CLASSIFICATION_TYPE":"U","NORAD_CAT_ID":38358,"ELEMENT_SET_NO":999,"REV_AT_EPOCH":62210,"BSTAR":0.0003716,"MEAN_MOTION_DOT":4.771e-5,"MEAN_MOTION_DDOT":0},{"OBJECT_NAME":"ECHOSTAR 17","OBJECT_ID":"2012-035A","EPOCH":"2023-11-16T21:26:55.012992","MEAN_MOTION":1.00270448,"ECCENTRICITY":0.0002146,"INCLINATION":0.017,"RA_OF_ASC_NODE":298.1172,"ARG_OF_PERICENTER":297.4599,"MEAN_ANOMALY":34.7839,"EPHEMERIS_TYPE":0,"CLASSIFICATION_TYPE":"U","NORAD_CAT_ID":38551,"ELEMENT_SET_NO":999,"REV_AT_EPOCH":4160,"BSTAR":0,"MEAN_MOTION_DOT":-5.8e-7,"MEAN_MOTION_DDOT":0},{"OBJECT_NAME":"METEOSAT-10 (MSG-3)","OBJECT_ID":"2012-035B","EPOCH":"2023-11-16T20:29:01.079808","MEAN_MOTION":1.00276773,"ECCENTRICITY":6.31e-5,"INCLINATION":2.4941,"RA_OF_ASC_NODE":58.589,"ARG_OF_PERICENTER":237.8304,"MEAN_ANOMALY":66.3072,"EPHEMERIS_TYPE":0,"CLASSIFICATION_TYPE":"U","NORAD_CAT_ID":38552,"ELEMENT_SET_NO":999,"REV_AT_EPOCH":4139,"BSTAR":0,"MEAN_MOTION_DOT":9.0e-8,"MEAN_MOTION_DDOT":0}]
